     2.100          NAVIGATION                              RINEX VERSION / TYPE
fic2rin                                 07/05/2012 00:03:47 PGM / RUN BY / DATE
                                                            END OF HEADER
18 12  7  4 12  0  0.0  .203614588827D-03  .181898940355D-11  .000000000000D+00
     .310000000000D+02 -.315625000000D+02  .563666336108D-08 -.993606571702D+00
    -.135786831379D-05  .135263232514D-01  .677257776260D-05  .515369935036D+04
     .302400000000D+06  .987201929092D-07 -.801916698501D+00  .331550836563D-06
     .929228681876D+00  .231000000000D+03 -.216479836802D+01 -.855964225774D-08
    -.486091676241D-09  .100000000000D+01  .169500000000D+04  .000000000000D+00
     .240000000000D+01  .000000000000D+00 -.107102096081D-07  .310000000000D+02
     .295206000000D+06  .400000000000D+01
20 12  7  4 12  0  0.0  .644437968731D-04  .341060513165D-12  .000000000000D+00
     .930000000000D+02 -.327500000000D+02  .573523889572D-08 -.610468579827D+00
    -.168010592461D-05  .492077937815D-02  .663101673126D-05  .515366540337D+04
     .302400000000D+06 -.149011611938D-07 -.855622148897D+00  .484287738800D-07
     .929678339006D+00  .240593750000D+03  .128645859206D+01 -.861678749521D-08
    -.470019578202D-09  .100000000000D+01  .169500000000D+04  .000000000000D+00
     .240000000000D+01  .000000000000D+00 -.791624188423D-08  .930000000000D+02
     .295206000000D+06  .400000000000D+01
22 12  7  4 12  0  0.0  .145182479173D-03  .454747350886D-12  .000000000000D+00
     .760000000000D+02 -.314062500000D+02  .561094800422D-08 -.179322943952D+01
    -.160560011864D-05  .625022884924D-02  .680238008499D-05  .515366814423D+04
     .302400000000D+06  .987201929092D-07 -.798617998171D+00  .745058059692D-07
     .926955029226D+00  .226000000000D+03 -.201232075289D+01 -.840499295884D-08
    -.439304013061D-09  .100000000000D+01  .169500000000D+04  .000000000000D+00
     .340000000000D+01  .000000000000D+00 -.167638063431D-07  .760000000000D+02
     .295206000000D+06  .400000000000D+01
23 12  7  4 12  0  0.0  .188868958503D-03 -.386535248253D-11  .000000000000D+00
     .100000000000D+02  .104406250000D+03  .429410743824D-08  .258731055569D+01
     .543333590031D-05  .807548582088D-02  .132396817207D-04  .515362320709D+04
     .302400000000D+06 -.199303030968D-06  .250085320463D+00 -.130385160446D-07
     .960122253791D+00  .125062500000D+03 -.298461156805D+01 -.771317842770D-08
    -.178936024832D-09  .100000000000D+01  .169500000000D+04  .000000000000D+00
     .240000000000D+01  .000000000000D+00 -.200234353542D-07  .100000000000D+02
     .295206000000D+06  .400000000000D+01
25 12  7  4 12  0  0.0  .365450978279D-04  .795807864051D-12  .000000000000D+00
     .410000000000D+02 -.119031250000D+03  .448018661776D-08 -.504602201610D+00
    -.631064176559D-05  .177726941183D-02  .308081507683D-05  .515369362450D+04
     .302400000000D+06 -.111758708954D-07  .232236292819D+01  .186264514923D-07
     .969147609848D+00  .321593750000D+03  .745993587182D+00 -.830998900154D-08
    -.452161691492D-09  .100000000000D+01  .169500000000D+04  .000000000000D+00
     .240000000000D+01  .000000000000D+00  .558793544769D-08  .410000000000D+02
     .295206000000D+06  .400000000000D+01
26 12  7  4 12  0  0.0 -.356324017048D-03  .109139364213D-10  .000000000000D+00
     .940000000000D+02  .913750000000D+02  .372122643259D-08  .244482209192D+01
     .454299151897D-05  .208116048016D-01  .121816992760D-04  .515366942596D+04
     .302400000000D+06  .137835741043D-06  .323582879211D+00 -.270083546638D-06
     .983255105276D+00  .150562500000D+03  .120165963420D+01 -.718922803163D-08
    -.121076471892D-09  .100000000000D+01  .169500000000D+04  .000000000000D+00
     .340000000000D+01  .000000000000D+00 -.605359673500D-08  .940000000000D+02
     .295206000000D+06  .400000000000D+01
27 12  7  4 12  0  0.0  .405570492148D-03  .397903932026D-11  .000000000000D+00
     .860000000000D+02  .119156250000D+03  .417303096635D-08 -.297923035117D+01
     .623799860477D-05  .217191617703D-01  .238046050072D-05  .515371900749D+04
     .302400000000D+06  .707805156708D-07  .124728910239D+01  .413507223129D-06
     .981856374190D+00  .341187500000D+03 -.106480917625D+01 -.783996942334D-08
     .300726812193D-09  .100000000000D+01  .169500000000D+04  .000000000000D+00
     .240000000000D+01  .000000000000D+00 -.419095158577D-08  .860000000000D+02
     .295206000000D+06  .400000000000D+01
28 12  7  4 12  0  0.0  .161436386406D-03  .386535248253D-11  .000000000000D+00
     .800000000000D+02 -.127437500000D+03  .405624038726D-08 -.185801806262D+01
    -.648945569992D-05  .179114202037D-01  .318326056004D-05  .515363273239D+04
     .302400000000D+06  .458210706711D-06  .238174216738D+01  .875443220139D-07
     .979533150562D+00  .325750000000D+03 -.182682788991D+01 -.789568602987D-08
    -.445732852277D-09  .100000000000D+01  .169500000000D+04  .000000000000D+00
     .240000000000D+01  .000000000000D+00 -.107102096081D-07  .800000000000D+02
     .295206000000D+06  .400000000000D+01
29 12  7  4 12  0  0.0  .330085866153D-03  .386535248253D-11  .000000000000D+00
     .100000000000D+03 -.602187500000D+02  .406624080382D-08  .370131871878D+00
    -.318512320518D-05  .213875679765D-02  .123642385006D-04  .515356331635D+04
     .302400000000D+06  .279396772385D-07 -.285985572095D+01 -.104308128357D-06
     .964140803443D+00  .144812500000D+03 -.111903113621D+01 -.770567811528D-08
     .249296098469D-09  .100000000000D+01  .169500000000D+04  .000000000000D+00
     .240000000000D+01  .000000000000D+00 -.931322574615D-08  .100000000000D+03
     .295206000000D+06  .400000000000D+01
31 12  7  4 12  0  0.0  .257709529251D-03  .295585778076D-11  .000000000000D+00
     .370000000000D+02  .103406250000D+03  .435625288399D-08  .998769810863D+00
     .516138970852D-05  .773775286507D-02  .181049108505D-05  .515367745209D+04
     .302400000000D+06  .145286321640D-06  .130281988980D+01 -.186264514923D-06
     .980716227042D+00  .352437500000D+03 -.858165410034D+00 -.831534636755D-08
     .206794328100D-09  .100000000000D+01  .169500000000D+04  .000000000000D+00
     .240000000000D+01  .000000000000D+00 -.130385160446D-07  .370000000000D+02
     .295206000000D+06  .400000000000D+01
32 12  7  4 12  0  0.0 -.461376272142D-03 -.409272615798D-11  .000000000000D+00
     .900000000000D+02 -.290625000000D+02  .505163899247D-08  .157152528863D+01
    -.158511102200D-05  .118131354684D-01  .764615833759D-05  .515363362503D+04
     .302400000000D+06  .188127160072D-06 -.722528422152D+00  .137835741043D-06
     .951246138786D+00  .229000000000D+03 -.559744186358D+00 -.807247910830D-08
    -.694671793011D-09  .100000000000D+01  .169500000000D+04  .000000000000D+00
     .240000000000D+01  .000000000000D+00 -.279396772385D-08  .900000000000D+02
     .295206000000D+06  .400000000000D+01
11 12  7  4 11 59 44.0 -.278256833553D-03 -.386535248253D-11  .000000000000D+00
     .200000000000D+01  .322812500000D+02  .636383650791D-08  .117033121720D+01
     .167824327946D-05  .130479960935D-01  .865012407303D-05  .515367559814D+04
     .302384000000D+06 -.180676579475D-06 -.213375139890D+01  .670552253723D-07
     .887983688885D+00  .174781250000D+03  .105879248824D+01 -.906180603202D-08
     .673242328960D-09  .100000000000D+01  .169500000000D+04  .000000000000D+00
     .240000000000D+01  .000000000000D+00 -.116415321827D-07  .200000000000D+01
     .295656000000D+06  .400000000000D+01
29 12  7  4 11 59 44.0  .330083537847D-03  .386535248253D-11  .000000000000D+00
     .270000000000D+02 -.602187500000D+02  .406624080382D-08  .367796873222D+00
    -.318512320518D-05  .213875342160D-02  .123642385006D-04  .515356332970D+04
     .302384000000D+06  .279396772385D-07 -.285985559221D+01 -.104308128357D-06
     .964140784425D+00  .144812500000D+03 -.111903017068D+01 -.770567811528D-08
     .249296098469D-09  .100000000000D+01  .169500000000D+04  .000000000000D+00
     .240000000000D+01  .000000000000D+00 -.931322574615D-08  .270000000000D+02
     .298536000000D+06  .400000000000D+01
13 12  7  4 11 59 44.0  .196840614080D-03 -.250111042988D-11  .000000000000D+00
     .100000000000D+01  .111000000000D+03  .372122643259D-08 -.298318553452D+01
     .582262873650D-05  .495164445601D-02  .127386301756D-04  .515365902519D+04
     .302384000000D+06  .223517417908D-07  .329771977972D+00  .931322574615D-07
     .985725877359D+00  .147468750000D+03  .203657706695D+01 -.747531137672D-08
    -.757174396496D-10  .100000000000D+01  .169500000000D+04  .000000000000D+00
     .240000000000D+01  .000000000000D+00 -.111758708954D-07  .100000000000D+01
     .299706000000D+06  .400000000000D+01
27 12  7  4 11 59 44.0  .405578408390D-03  .409272615798D-11  .000000000000D+00
     .400000000000D+02  .119156250000D+03  .417303096635D-08 -.298156421460D+01
     .623799860477D-05  .217191580450D-01  .238046050072D-05  .515371901512D+04
     .302384000000D+06  .707805156708D-07  .124728921650D+01  .413507223129D-06
     .981856380042D+00  .341187500000D+03 -.106480900363D+01 -.783996942334D-08
     .300726812193D-09  .100000000000D+01  .169500000000D+04  .000000000000D+00
     .240000000000D+01  .000000000000D+00 -.419095158577D-08  .400000000000D+02
     .301206000000D+06  .400000000000D+01
13 12  7  4 13 59 44.0  .196822918952D-03 -.250111042988D-11  .000000000000D+00
     .200000000000D+01  .117343750000D+03  .370586865002D-08 -.193298051000D+01
     .620447099209D-05  .495221081655D-02  .127460807562D-04  .515365832329D+04
     .309584000000D+06 -.540167093277D-07  .329718142587D+00  .819563865662D-07
     .985725302433D+00  .150562500000D+03  .203655692403D+01 -.749602652531D-08
    -.635740766869D-10  .100000000000D+01  .169500000000D+04  .000000000000D+00
     .240000000000D+01  .000000000000D+00 -.111758708954D-07  .200000000000D+01
     .302406000000D+06  .400000000000D+01
